[ {"name": "STARLINK-35870", "line1": "1 66572U 25268R   26186.95688757  .00018806  00000+0  69225-3 0  9996", "line2": "2 66572  43.0002  39.4624 0001234 265.7356  94.3355 15.27529327 36044"}, {"name": "STARLINK-35650", "line1": "1 66573U 25268S   26187.01841585  .00016587  00000+0  61197-3 0  9999", "line2": "2 66573  43.0023  39.0630 0002001 259.3089 100.7537 15.27523566 36050"}, {"name": "STARLINK-35812", "line1": "1 66574U 25268T   26186.94917304  .00023560  00000+0  86446-3 0  9997", "line2": "2 66574  42.9994  39.4001 0001077 257.1149 102.9582 15.27522351 36041"}, {"name": "STARLINK-35810", "line1": "1 66575U 25268U   26187.01070858  .00017012  00000+0  62733-3 0  9999", "line2": "2 66575  42.9989  39.0039 0001522 268.6423  91.4254 15.27526183 36056"}, {"name": "STARLINK-35814", "line1": "1 66576U 25268V   26187.00685473  .00016327  00000+0  60284-3 0  9991", "line2": "2 66576  42.9978  38.9712 0001276 275.2540  84.8166 15.27508085 36050"}, {"name": "STARLINK-35815", "line1": "1 66577U 25268W   26187.00042855  .00020572  00000+0  75624-3 0  9994", "line2": "2 66577  43.0009  38.9230 0001179 284.9543  75.1178 15.27526707 36052"}, {"name": "STARLINK-35743", "line1": "1 66578U 25268X   26186.99656923  .00017757  00000+0  65418-3 0  9990", "line2": "2 66578  43.0025  38.8932 0002138 266.4576  93.6031 15.27531650 36052"}, {"name": "STARLINK-35868", "line1": "1 66579U 25268Y   26186.99271663  .00015265  00000+0  56402-3 0  9990", "line2": "2 66579  43.0038  38.8663 0002159 285.8749  74.1864 15.27525806 36052"}, {"name": "STARLINK-35872", "line1": "1 66580U 25268Z   26186.98883431  .00026747  00000+0  97779-3 0  9992", "line2": "2 66580  43.0036  38.8338 0001211 285.7459  74.3259 15.27585983 36058"}, {"name": "STARLINK-35744", "line1": "1 66581U 25268AA  26186.98500691  .00022513  00000+0  82646-3 0  9991", "line2": "2 66581  43.0063  38.8065 0001927 276.6766  83.3866 15.27526678 36050"}, {"name": "STARLINK-35746", "line1": "1 66582U 25268AB  26186.97858009  .00023329  00000+0  85614-3 0  9994", "line2": "2 66582  43.0030  38.7535 0001787 257.8448 102.2203 15.27520304 36054"}, {"name": "STARLINK-35941", "line1": "1 66583U 25268AC  26186.64777898  .00025609  00000+0  93787-3 0  9998", "line2": "2 66583  43.0019  40.5698 0001404 236.6975 123.3742 15.27546232 36004"}, {"name": "STARLINK-35939", "line1": "1 66584U 25268AD  26186.97086822  .00029651  00000+0  10844-2 0  9998", "line2": "2 66584  43.0035  38.6939 0002314 273.6623  86.3964 15.27526166 36054"}, {"name": "STARLINK-35963", "line1": "1 66585U 25268AE  26186.96073919  .00028616  00000+0  10469-2 0  9994", "line2": "2 66585  43.0012  39.4890 0001956 267.7234  92.3394 15.27532311 36040"}, {"name": "STARLINK-36076", "line1": "1 66588U 25270A   26187.13407835  .00018472  00000+0  68017-3 0  9990", "line2": "2 66588  42.9971 106.9938 0001524 252.2617 107.8068 15.27528346 35821"}, {"name": "STARLINK-35447", "line1": "1 66589U 25270B   26187.15464453  .00020326  00000+0  74696-3 0  9993", "line2": "2 66589  43.0006 107.1536 0000641 351.6220   8.4621 15.27543086 35934"}, {"name": "STARLINK-35429", "line1": "1 66590U 25270C   26187.12006542  .00016223  00000+0  59850-3 0  9999", "line2": "2 66590  43.0010 107.7497 0001998 250.2050 109.8586 15.27539548 35927"}, {"name": "STARLINK-36058", "line1": "1 66591U 25270D   26187.15978035  .00028530  00000+0  10434-2 0  9996", "line2": "2 66591  42.9997 107.1897 0001369 261.5944  98.4752 15.27544584 35820"}, {"name": "STARLINK-36066", "line1": "1 66592U 25270E   26187.17263430  .00016658  00000+0  61435-3 0  9991", "line2": "2 66592  43.0024 107.2871 0000958 269.0282  91.0460 15.27533978 35727"}, {"name": "STARLINK-36031", "line1": "1 66593U 25270F   26187.14050939  .00020601  00000+0  75704-3 0  9994", "line2": "2 66593  42.9985 107.0411 0000444 256.6291 103.4511 15.27537725 35822"}, {"name": "STARLINK-36032", "line1": "1 66594U 25270G   26187.17006070  .00037384  00000+0  13624-2 0  9993", "line2": "2 66594  43.0022 107.2628 0001415 268.6873  91.3816 15.27550161 35638"}, {"name": "STARLINK-35711", "line1": "1 66595U 25270H   26186.22890612  .00032385  00000+0  11798-2 0  9998", "line2": "2 66595  43.0002 112.2368 0003575 257.6733 102.3719 15.27616480 35795"}, {"name": "STARLINK-35811", "line1": "1 66596U 25270J   26187.18034033  .00022659  00000+0  83180-3 0  9990", "line2": "2 66596  42.9993 107.3411 0001164 214.6397 145.4379 15.27523831 35931"}, {"name": "STARLINK-35820", "line1": "1 66597U 25270K   26187.16235136  .00019679  00000+0  72371-3 0  9994", "line2": "2 66597  43.0012 107.2093 0001642 256.0281 104.0388 15.27535151 35933"}, {"name": "STARLINK-35981", "line1": "1 66598U 25270L   26187.12893735  .00020341  00000+0  74790-3 0  9991", "line2": "2 66598  42.9996 106.9495 0001104 261.3820  98.6906 15.27525060 35679"}, {"name": "STARLINK-35930", "line1": "1 66599U 25270M   26186.95590496  .00026950  00000+0  98674-3 0  9999", "line2": "2 66599  43.0020 108.2345 0002096 268.6643  91.3969 15.27530531 35794"}, {"name": "STARLINK-35980", "line1": "1 66600U 25270N   26187.17777044  .00022963  00000+0  84295-3 0  9997", "line2": "2 66600  43.0022 107.3199 0001109 261.3036  98.7690 15.27518770 35722"}, {"name": "STARLINK-35978", "line1": "1 66601U 25270P   26187.15076501  .00033504  00000+0  12200-2 0  9995", "line2": "2 66601  42.9984 107.1209 0000803 224.2161 135.8626 15.27621335 35662"}, {"name": "STARLINK-36050", "line1": "1 66602U 25270Q   26187.11108666  .00010265  00000+0  38230-3 0  9991", "line2": "2 66602  43.0027 107.6836 0002543 248.9801 111.0778 15.27554159 35710"}, {"name": "STARLINK-36048", "line1": "1 66603U 25270R   26187.13664338  .00025515  00000+0  93478-3 0  9996", "line2": "2 66603  42.9995 107.0056 0002524 251.4910 108.5668 15.27534127 35723"}]