OBJECT_NAME,OBJECT_ID,EPOCH,MEAN_MOTION,ECCENTRICITY,INCLINATION,RA_OF_ASC_NODE,ARG_OF_PERICENTER,MEAN_ANOMALY,EPHEMERIS_TYPE,CLASSIFICATION_TYPE,NORAD_CAT_ID,ELEMENT_SET_NO,REV_AT_EPOCH,BSTAR,MEAN_MOTION_DOT,MEAN_MOTION_DDOT
STARLINK-35870,2025-268R,2026-07-05T22:57:55.086048,15.27529327,.00012342,43.0002,39.4624,265.7356,94.3355,0,U,66572,999,3604,.69225011E-3,.18806E-3,0
STARLINK-35650,2025-268S,2026-07-06T00:26:31.129440,15.27523566,.00020016,43.0023,39.0630,259.3089,100.7537,0,U,66573,999,3605,.61196973E-3,.16587E-3,0
STARLINK-35812,2025-268T,2026-07-05T22:46:48.550656,15.27522351,.0001077,42.9994,39.4001,257.1149,102.9582,0,U,66574,999,3604,.86445866E-3,.2356E-3,0
STARLINK-35810,2025-268U,2026-07-06T00:15:25.221312,15.27526183,.00015224,42.9989,39.0039,268.6423,91.4254,0,U,66575,999,3605,.62732686E-3,.17012E-3,0
STARLINK-35814,2025-268V,2026-07-06T00:09:52.248672,15.27508085,.00012765,42.9978,38.9712,275.2540,84.8166,0,U,66576,999,3605,.60283826E-3,.16327E-3,0
STARLINK-35815,2025-268W,2026-07-06T00:00:37.026720,15.27526707,.00011798,43.0009,38.9230,284.9543,75.1178,0,U,66577,999,3605,.75624493E-3,.20572E-3,0
STARLINK-35743,2025-268X,2026-07-05T23:55:03.581472,15.27531650,.00021387,43.0025,38.8932,266.4576,93.6031,0,U,66578,999,3605,.65418183E-3,.17757E-3,0
STARLINK-35868,2025-268Y,2026-07-05T23:49:30.716832,15.27525806,.0002159,43.0038,38.8663,285.8749,74.1864,0,U,66579,999,3605,.56402182E-3,.15265E-3,0
STARLINK-35872,2025-268Z,2026-07-05T23:43:55.284384,15.27585983,.00012111,43.0036,38.8338,285.7459,74.3259,0,U,66580,999,3605,.97779074E-3,.26747E-3,0
STARLINK-35744,2025-268AA,2026-07-05T23:38:24.597024,15.27526678,.00019275,43.0063,38.8065,276.6766,83.3866,0,U,66581,999,3605,.82645968E-3,.22513E-3,0
STARLINK-35746,2025-268AB,2026-07-05T23:29:09.319776,15.27520304,.00017873,43.0030,38.7535,257.8448,102.2203,0,U,66582,999,3605,.85613584E-3,.23329E-3,0
STARLINK-35941,2025-268AC,2026-07-05T15:32:48.103872,15.27546232,.00014043,43.0019,40.5698,236.6975,123.3742,0,U,66583,999,3600,.93786848E-3,.25609E-3,0
STARLINK-35939,2025-268AD,2026-07-05T23:18:03.014208,15.27526166,.00023146,43.0035,38.6939,273.6623,86.3964,0,U,66584,999,3605,.10844449E-2,.29651E-3,0
STARLINK-35963,2025-268AE,2026-07-05T23:03:27.866016,15.27532311,.00019569,43.0012,39.4890,267.7234,92.3394,0,U,66585,999,3604,.10468664E-2,.28616E-3,0
STARLINK-36076,2025-270A,2026-07-06T03:13:04.369440,15.27528346,.00015247,42.9971,106.9938,252.2617,107.8068,0,U,66588,999,3582,.68016506E-3,.18472E-3,0
STARLINK-35447,2025-270B,2026-07-06T03:42:41.287392,15.27543086,.00006418,43.0006,107.1536,351.6220,8.4621,0,U,66589,999,3593,.74695664E-3,.20326E-3,0
STARLINK-35429,2025-270C,2026-07-06T02:52:53.652288,15.27539548,.00019986,43.0010,107.7497,250.2050,109.8586,0,U,66590,999,3592,.59849588E-3,.16223E-3,0
STARLINK-36058,2025-270D,2026-07-06T03:50:05.022240,15.27544584,.00013691,42.9997,107.1897,261.5944,98.4752,0,U,66591,999,3582,.10433855E-2,.2853E-3,0
STARLINK-36066,2025-270E,2026-07-06T04:08:35.603520,15.27533978,.00009585,43.0024,107.2871,269.0282,91.0460,0,U,66592,999,3572,.61435365E-3,.16658E-3,0
STARLINK-36031,2025-270F,2026-07-06T03:22:20.011296,15.27537725,.00004448,42.9985,107.0411,256.6291,103.4511,0,U,66593,999,3582,.75703782E-3,.20601E-3,0
STARLINK-36032,2025-270G,2026-07-06T04:04:53.244480,15.27550161,.0001415,43.0022,107.2628,268.6873,91.3816,0,U,66594,999,3563,.13623829E-2,.37384E-3,0
STARLINK-35711,2025-270H,2026-07-05T05:29:37.488768,15.27616480,.0003575,43.0002,112.2368,257.6733,102.3719,0,U,66595,999,3579,.11798E-2,.32385E-3,0
STARLINK-35811,2025-270J,2026-07-06T04:19:41.404512,15.27523831,.00011645,42.9993,107.3411,214.6397,145.4379,0,U,66596,999,3593,.83180332E-3,.22659E-3,0
STARLINK-35820,2025-270K,2026-07-06T03:53:47.157504,15.27535151,.00016425,43.0012,107.2093,256.0281,104.0388,0,U,66597,999,3593,.72370646E-3,.19679E-3,0
STARLINK-35981,2025-270L,2026-07-06T03:05:40.187040,15.27525060,.00011042,42.9996,106.9495,261.3820,98.6906,0,U,66598,999,3567,.74789584E-3,.20341E-3,0
STARLINK-35930,2025-270M,2026-07-05T22:56:30.188544,15.27530531,.00020963,43.0020,108.2345,268.6643,91.3969,0,U,66599,999,3579,.98673848E-3,.2695E-3,0
STARLINK-35980,2025-270N,2026-07-06T04:15:59.366016,15.27518770,.00011091,43.0022,107.3199,261.3036,98.7690,0,U,66600,999,3572,.84295181E-3,.22963E-3,0
STARLINK-35978,2025-270P,2026-07-06T03:37:06.096864,15.27621335,.00008033,42.9984,107.1209,224.2161,135.8626,0,U,66601,999,3566,.12199724E-2,.33504E-3,0
STARLINK-36050,2025-270Q,2026-07-06T02:39:57.887424,15.27554159,.00025437,43.0027,107.6836,248.9801,111.0778,0,U,66602,999,3571,.382305E-3,.10265E-3,0
STARLINK-36048,2025-270R,2026-07-06T03:16:45.988032,15.27534127,.00025247,42.9995,107.0056,251.4910,108.5668,0,U,66603,999,3572,.9347822E-3,.25515E-3,0
